49281,ONEWEB-0349,2021,109.03,148.0,+,87.92,Active,1,LEO,Russia,UK,Commercial,Communications,Soyuz,1 49281U 21090C   25004.44537201  .00000114  00000+0  24734-3 0  9991,2 49281  87.9243  19.6442 0001725  88.9892 271.1438 13.20772221160037,13.20772221,0.0001725,LEO
49282,ONEWEB-0353,2021,109.55,148.0,+,87.9,Active,1,LEO,Russia,UK,Commercial,Communications,Soyuz,1 49282U 21090D   25004.49656787 -.00000155  00000+0 -45163-3 0  9994,2 49282  87.8990  34.8351 0001482  94.2697 265.8602 13.14502850158129,13.1450285,0.0001482,LEO
49283,ONEWEB-0356,2021,109.03,148.0,+,87.92,Active,1,LEO,Russia,UK,Commercial,Communications,Soyuz,1 49283U 21090E   25004.44379677  .00000073  00000+0  14783-3 0  9991,2 49283  87.9244  19.6372 0002127  64.2634 295.8718 13.20771162160037,13.20771162,0.0002127,LEO
49284,ONEWEB-0358,2021,109.03,148.0,+,87.93,Active,1,LEO,Russia,UK,Commercial,Communications,Soyuz,1 49284U 21090F   25004.47376358 -.00000011  00000+0 -58410-4 0  9998,2 49284  87.9245  19.6198 0001998  85.5451 274.5910 13.20770549160769,13.20770549,0.0001998,LEO
49285,ONEWEB-0359,2021,109.03,148.0,+,87.92,Active,1,LEO,Russia,UK,Commercial,Communications,Soyuz,1 49285U 21090G   25004.31911224  .00000028  00000+0  36959-4 0  9999,2 49285  87.9240  19.6655 0002220  95.3871 264.7515 13.20771356160722,13.20771356,0.000222,LEO
49286,ONEWEB-0360,2021,109.03,148.0,+,87.92,Active,1,LEO,Russia,UK,Commercial,Communications,Soyuz,1 49286U 21090H   25004.76418237  .00000107  00000+0  23194-3 0  9999,2 49286  87.9240  19.5822 0001943  93.0193 267.1163 13.20771336161388,13.20771336,0.0001943,LEO
49287,ONEWEB-0361,2021,109.03,148.0,+,87.92,Active,1,LEO,Russia,UK,Commercial,Communications,Soyuz,1 49287U 21090J   25004.51797289  .00000110  00000+0  23899-3 0  9996,2 49287  87.9244  19.6264 0001785  85.6242 274.5095 13.20771372160510,13.20771372,0.0001785,LEO
49288,ONEWEB-0362,2021,109.11,148.0,+,87.92,Active,1,LEO,Russia,UK,Commercial,Communications,Soyuz,1 49288U 21090K   25004.58255835  .00000006  00000+0 -17243-4 0  9992,2 49288  87.9161  50.0888 0001879 106.2977 253.8362 13.19727253157193,13.19727253,0.0001879,LEO
